[{"OBJECT_NAME":"STARLINK-30609","OBJECT_ID":"2023-160L","EPOCH":"2026-03-08T07:53:16.804608","MEAN_MOTION":15.02547951,"ECCENTRICITY":0.00015778,"INCLINATION":43.0014,"RA_OF_ASC_NODE":87.606,"ARG_OF_PERICENTER":278.0465,"MEAN_ANOMALY":82.0198,"EPHEMERIS_TYPE":0,"CLASSIFICATION_TYPE":"U","NORAD_CAT_ID":58085,"ELEMENT_SET_NO":999,"REV_AT_EPOCH":13271,"BSTAR":0.00010421992,"MEAN_MOTION_DOT":1.205e-5,"MEAN_MOTION_DDOT":0},{"OBJECT_NAME":"DEORBITSAIL","OBJECT_ID":"2015-032E","EPOCH":"2026-03-09T13:39:47.460384","MEAN_MOTION":15.02284863,"ECCENTRICITY":0.0012066,"INCLINATION":97.5981,"RA_OF_ASC_NODE":287.3228,"ARG_OF_PERICENTER":211.0438,"MEAN_ANOMALY":149.0075,"EPHEMERIS_TYPE":0,"CLASSIFICATION_TYPE":"U","NORAD_CAT_ID":40719,"ELEMENT_SET_NO":999,"REV_AT_EPOCH":57628,"BSTAR":0.0007398,"MEAN_MOTION_DOT":9.73e-5,"MEAN_MOTION_DDOT":0}]
